[{"OBJECT_NAME":"STARLINK-31814","OBJECT_ID":"2024-093W","EPOCH":"2026-03-09T10:46:34.818240","MEAN_MOTION":15.27567041,"ECCENTRICITY":0.00017412,"INCLINATION":43.0057,"RA_OF_ASC_NODE":210.6688,"ARG_OF_PERICENTER":271.9485,"MEAN_ANOMALY":88.1168,"EPHEMERIS_TYPE":0,"CLASSIFICATION_TYPE":"U","NORAD_CAT_ID":59802,"ELEMENT_SET_NO":999,"REV_AT_EPOCH":10265,"BSTAR":-0.00011881057,"MEAN_MOTION_DOT":-3.529e-5,"MEAN_MOTION_DDOT":0},{"OBJECT_NAME":"CZ-6A DEB","OBJECT_ID":"2022-151TQ","EPOCH":"2026-03-09T06:57:26.684352","MEAN_MOTION":15.22919125,"ECCENTRICITY":0.00409545,"INCLINATION":98.8216,"RA_OF_ASC_NODE":191.4692,"ARG_OF_PERICENTER":160.8215,"MEAN_ANOMALY":199.457,"EPHEMERIS_TYPE":0,"CLASSIFICATION_TYPE":"U","NORAD_CAT_ID":54975,"ELEMENT_SET_NO":999,"REV_AT_EPOCH":17711,"BSTAR":0.0066825196,"MEAN_MOTION_DOT":0.00163663,"MEAN_MOTION_DDOT":0}]
